STARLINK-30078          
1 56841U 23079U   24193.31456355  .00000748  00000+0  70403-4 0  9992
2 56841  43.0024 161.9198 0001046 270.5487  89.5236 15.02535987 61676
STARLINK-30135          
1 56842U 23079V   24193.35450675  .00001401  00000+0  11878-3 0  9993
2 56842  43.0024 162.1218 0000996 276.7700  83.3029 15.02538407 61674
STARLINK-30137          
1 56843U 23079W   24193.27471782 -.00000375  00000+0 -12688-4 0  9999
2 56843  43.0022 162.3835 0001080 264.2792  95.7928 15.02528040 61664
STARLINK-30136          
1 56844U 23079X   24193.30135705 -.00001499  00000+0 -95936-4 0  9991
2 56844  43.0038 162.5708 0001123 270.3493  89.7221 15.02528628 61668
2023-081A               
1 56846U 23081A   24193.53532530  .00015485  00000+0  73858-3 0  9994
2 56846  97.4117 265.6746 0001751  90.1677 269.9758 15.19171269 60802
2023-081B               
1 56847U 23081B   24193.57216350  .00018613  00000+0  80678-3 0  9992
2 56847  97.3750 265.0752 0002121 134.8047 225.3362 15.22421984 60819
2023-081C               
1 56848U 23081C   24193.54670189  .00035624  00000+0  82696-3 0  9997
2 56848  97.3700 270.6102 0007099 306.8188  53.2407 15.42267612 61190
2023-081D               
1 56849U 23081D   24193.54406649  .00036934  00000+0  85564-3 0  9998
2 56849  97.3728 270.7383 0007039 308.3888  51.6726 15.42321650 61190
2023-081E               
1 56850U 23081E   24193.54059393  .00036475  00000+0  84340-3 0  9991
2 56850  97.3758 270.9130 0006797 304.6418  55.4187 15.42382678 61207
2023-081F               
1 56851U 23081F   24193.57171409  .00018876  00000+0  81814-3 0  9996
2 56851  97.3744 264.4634 0002125 123.7994 236.3445 15.22420650 60779
2023-081G               
1 56852U 23081G   24193.53740566  .00047019  00000+0  10914-2 0  9992
2 56852  97.3705 270.6412 0007821 312.6290  47.4297 15.42203083 61190
2023-081H               
1 56853U 23081H   24193.53073956  .00036108  00000+0  83557-3 0  9996
2 56853  97.3788 271.0713 0007671 305.5282  54.5250 15.42355013 61195
2023-081J               
1 56854U 23081J   24193.53364865  .00034198  00000+0  79328-3 0  9997
2 56854  97.3702 270.6216 0007916 309.8963  50.1588 15.42292034 61199
2023-081K               
1 56855U 23081K   24193.52771171  .00036632  00000+0  84699-3 0  9991
2 56855  97.3706 270.6650 0007701 305.3572  54.6955 15.42376775 61197
2023-081L               
1 56856U 23081L   24193.57192495  .00018915  00000+0  81978-3 0  9994
2 56856  97.3749 265.0743 0001975 130.5750 229.5659 15.22421610 60818
2023-081M               
1 56857U 23081M   24193.57983337  .00047527  00000+0  10992-2 0  9996
2 56857  97.3711 270.7877 0008034 307.8379  52.2140 15.42307385 61202
2023-081N               
1 56858U 23081N   24193.57162460  .00019264  00000+0  83468-3 0  9999
2 56858  97.3753 265.6886 0002014 117.8754 242.2687 15.22426993 60852
2023-081P               
1 56859U 23081P   24193.57607919  .00038753  00000+0  89712-3 0  9995
2 56859  97.3795 271.1723 0008630 304.3391  55.7039 15.42320106 61200
2023-081Q               
1 56860U 23081Q   24193.57292463  .00034606  00000+0  80498-3 0  9996
2 56860  97.3695 270.7018 0008761 306.5784  53.4656 15.42198512 61202
2023-081R               
1 56861U 23081R   24193.56966605  .00038426  00000+0  88804-3 0  9995
2 56861  97.3725 270.8418 0008456 299.5385  60.5019 15.42374655 61207
2023-081S               
1 56862U 23081S   24193.56611424  .00039459  00000+0  91357-3 0  9996
2 56862  97.3765 271.0403 0008462 300.4767  59.5644 15.42314221 61207
2023-081T               
1 56863U 23081T   24193.56311584  .00038004  00000+0  88107-3 0  9995
2 56863  97.3764 271.0605 0008027 302.0334  58.0133 15.42285793 61204
2023-081U               
1 56864U 23081U   24193.55987028  .00036645  00000+0  85111-3 0  9998
2 56864  97.3766 271.0936 0008336 306.3043  53.7433 15.42236387 61201
2023-081V               
1 56865U 23081V   24193.55633770  .00037525  00000+0  86908-3 0  9994
2 56865  97.3773 271.1056 0008366 303.4862  56.5585 15.42316254 61205
2023-081W               
1 56866U 23081W   24193.53469972  .00009612  00000+0  45929-3 0  9998
2 56866  97.3780 264.9396 0014345 324.6658  35.3625 15.19139469 60791
2023-081X               
1 56867U 23081X   24193.55322792  .00037565  00000+0  87119-3 0  9994
2 56867  97.3781 271.1294 0008616 305.2344  54.8096 15.42272926 61208
2023-081Y               
1 56868U 23081Y   24193.54989862  .00035497  00000+0  82244-3 0  9997
2 56868  97.3779 271.1339 0008783 305.9784  54.0648 15.42311906 61214
2023-081AA              
1 56870U 23081AA  24193.58973075  .00037552  00000+0  86605-3 0  9992
2 56870  97.3783 271.1667 0007988 304.0137  56.0351 15.42445884 61209
2023-081AB              
1 56871U 23081AB  24193.58255704  .00033980  00000+0  79026-3 0  9995
2 56871  97.3710 270.7673 0007984 309.6645  50.3898 15.42214603 61209
2023-081AC              
1 56872U 23081AC  24193.58625559  .00042469  00000+0  98051-3 0  9996
2 56872  97.3687 270.6494 0007980 301.6492  58.3976 15.42385949 61208
LONGJIANG 3             
1 56874U 23082A   24193.05394034  .00027204  00000+0  78805-3 0  9997
2 56874  49.1235  44.4192 0009042 281.5826  78.4107 15.35258252 60996
