OBJECT_NAME,OBJECT_ID,EPOCH,MEAN_MOTION,ECCENTRICITY,INCLINATION,RA_OF_ASC_NODE,ARG_OF_PERICENTER,MEAN_ANOMALY,EPHEMERIS_TYPE,CLASSIFICATION_TYPE,NORAD_CAT_ID,ELEMENT_SET_NO,REV_AT_EPOCH,BSTAR,MEAN_MOTION_DOT,MEAN_MOTION_DDOT
STARLINK-30078,2023-079U,2024-07-11T07:32:58.290720,15.02535987,.0001046,43.0024,161.9198,270.5487,89.5236,0,U,56841,999,6167,.70403E-4,.748E-5,0
STARLINK-30135,2023-079V,2024-07-11T08:30:29.383200,15.02538407,.0000996,43.0024,162.1218,276.7700,83.3029,0,U,56842,999,6167,.11878E-3,.1401E-4,0
STARLINK-30137,2023-079W,2024-07-11T06:35:35.619648,15.02528040,.000108,43.0022,162.3835,264.2792,95.7928,0,U,56843,999,6166,-.12688E-4,-.375E-5,0
STARLINK-30136,2023-079X,2024-07-11T07:13:57.249120,15.02528628,.0001123,43.0038,162.5708,270.3493,89.7221,0,U,56844,999,6166,-.95936E-4,-.1499E-4,0
2023-081A,2023-081A,2024-07-11T12:50:52.105920,15.19171269,.0001751,97.4117,265.6746,90.1677,269.9758,0,U,56846,999,6080,.73858E-3,.15485E-3,0
2023-081B,2023-081B,2024-07-11T13:43:54.926400,15.22421984,.0002121,97.3750,265.0752,134.8047,225.3362,0,U,56847,999,6081,.80678E-3,.18613E-3,0
2023-081C,2023-081C,2024-07-11T13:07:15.043296,15.42267612,.0007099,97.3700,270.6102,306.8188,53.2407,0,U,56848,999,6119,.82696E-3,.35624E-3,0
2023-081D,2023-081D,2024-07-11T13:03:27.344736,15.42321650,.0007039,97.3728,270.7383,308.3888,51.6726,0,U,56849,999,6119,.85564E-3,.36934E-3,0
2023-081E,2023-081E,2024-07-11T12:58:27.315552,15.42382678,.0006797,97.3758,270.9130,304.6418,55.4187,0,U,56850,999,6120,.8434E-3,.36475E-3,0
2023-081F,2023-081F,2024-07-11T13:43:16.097376,15.22420650,.0002125,97.3744,264.4634,123.7994,236.3445,0,U,56851,999,6077,.81814E-3,.18876E-3,0
2023-081G,2023-081G,2024-07-11T12:53:51.849024,15.42203083,.0007821,97.3705,270.6412,312.6290,47.4297,0,U,56852,999,6119,.10914E-2,.47019E-3,0
2023-081H,2023-081H,2024-07-11T12:44:15.897984,15.42355013,.0007671,97.3788,271.0713,305.5282,54.5250,0,U,56853,999,6119,.83557E-3,.36108E-3,0
2023-081J,2023-081J,2024-07-11T12:48:27.243360,15.42292034,.0007916,97.3702,270.6216,309.8963,50.1588,0,U,56854,999,6119,.79328E-3,.34198E-3,0
2023-081K,2023-081K,2024-07-11T12:39:54.291744,15.42376775,.0007701,97.3706,270.6650,305.3572,54.6955,0,U,56855,999,6119,.84699E-3,.36632E-3,0
2023-081L,2023-081L,2024-07-11T13:43:34.315680,15.22421610,.0001975,97.3749,265.0743,130.5750,229.5659,0,U,56856,999,6081,.81978E-3,.18915E-3,0
2023-081M,2023-081M,2024-07-11T13:54:57.603168,15.42307385,.0008034,97.3711,270.7877,307.8379,52.2140,0,U,56857,999,6120,.10992E-2,.47527E-3,0
2023-081N,2023-081N,2024-07-11T13:43:08.365440,15.22426993,.0002014,97.3753,265.6886,117.8754,242.2687,0,U,56858,999,6085,.83468E-3,.19264E-3,0
2023-081P,2023-081P,2024-07-11T13:49:33.242016,15.42320106,.000863,97.3795,271.1723,304.3391,55.7039,0,U,56859,999,6120,.89712E-3,.38753E-3,0
2023-081Q,2023-081Q,2024-07-11T13:45:00.688032,15.42198512,.0008761,97.3695,270.7018,306.5784,53.4656,0,U,56860,999,6120,.80498E-3,.34606E-3,0
2023-081R,2023-081R,2024-07-11T13:40:19.146720,15.42374655,.0008456,97.3725,270.8418,299.5385,60.5019,0,U,56861,999,6120,.88804E-3,.38426E-3,0
2023-081S,2023-081S,2024-07-11T13:35:12.270336,15.42314221,.0008462,97.3765,271.0403,300.4767,59.5644,0,U,56862,999,6120,.91357E-3,.39459E-3,0
2023-081T,2023-081T,2024-07-11T13:30:53.208576,15.42285793,.0008027,97.3764,271.0605,302.0334,58.0133,0,U,56863,999,6120,.88107E-3,.38004E-3,0
2023-081U,2023-081U,2024-07-11T13:26:12.792192,15.42236387,.0008336,97.3766,271.0936,306.3043,53.7433,0,U,56864,999,6120,.85111E-3,.36645E-3,0
2023-081V,2023-081V,2024-07-11T13:21:07.577280,15.42316254,.0008366,97.3773,271.1056,303.4862,56.5585,0,U,56865,999,6120,.86908E-3,.37525E-3,0
2023-081W,2023-081W,2024-07-11T12:49:58.055808,15.19139469,.0014345,97.3780,264.9396,324.6658,35.3625,0,U,56866,999,6079,.45929E-3,.9612E-4,0
2023-081X,2023-081X,2024-07-11T13:16:38.892288,15.42272926,.0008616,97.3781,271.1294,305.2344,54.8096,0,U,56867,999,6120,.87119E-3,.37565E-3,0
2023-081Y,2023-081Y,2024-07-11T13:11:51.240768,15.42311906,.0008783,97.3779,271.1339,305.9784,54.0648,0,U,56868,999,6121,.82244E-3,.35497E-3,0
2023-081AA,2023-081AA,2024-07-11T14:09:12.736800,15.42445884,.0007988,97.3783,271.1667,304.0137,56.0351,0,U,56870,999,6120,.86605E-3,.37552E-3,0
2023-081AB,2023-081AB,2024-07-11T13:58:52.928256,15.42214603,.0007984,97.3710,270.7673,309.6645,50.3898,0,U,56871,999,6120,.79026E-3,.3398E-3,0
2023-081AC,2023-081AC,2024-07-11T14:04:12.482976,15.42385949,.000798,97.3687,270.6494,301.6492,58.3976,0,U,56872,999,6120,.98051E-3,.42469E-3,0
LONGJIANG 3,2023-082A,2024-07-11T01:17:40.445376,15.35258252,.0009042,49.1235,44.4192,281.5826,78.4107,0,U,56874,999,6099,.78805E-3,.27204E-3,0
